G21
G90
G0 X10.000 Y10.000
M3 S1000.0
G1 X13.000 Y10.000 F126.000
G1 X13.000 Y20.000 F120.000
M5
G0 X10.000 Y20.000
M3 S1000.0
G1 X13.000 Y20.000 F126.000
M5
G0 X10.000 Y30.000
M3 S1000.0
G1 X13.000 Y30.000 F126.000
G1 X13.000 Y40.000 F120.000
M5
G0 X10.000 Y40.000
M3 S1000.0
G1 X13.000 Y40.000 F126.000
M5
G0 X10.000 Y50.000
M3 S1000.0
G1 X13.000 Y50.000 F126.000
G1 X13.000 Y60.000 F120.000
M5
G0 X10.000 Y60.000
M3 S1000.0
G1 X13.000 Y60.000 F126.000
M5
G0 X0.000 Y10.000
M3 S1000.0
G1 X3.000 Y10.000 F126.000
G1 X3.000 Y20.000 F120.000
M5
G0 X0.000 Y20.000
M3 S1000.0
G1 X3.000 Y20.000 F126.000
M5
G0 X0.000 Y30.000
M3 S1000.0
G1 X3.000 Y30.000 F126.000
G1 X3.000 Y40.000 F120.000
M5
G0 X0.000 Y40.000
M3 S1000.0
G1 X3.000 Y40.000 F126.000
M5
G0 X0.000 Y50.000
M3 S1000.0
G1 X3.000 Y50.000 F126.000
G1 X3.000 Y60.000 F120.000
M5
G0 X0.000 Y60.000
M3 S1000.0
G1 X3.000 Y60.000 F126.000
M5
G0 X43.000 Y0.000
M3 S1000.0
G1 X43.000 Y10.000 F120.000
M5
G0 X40.000 Y10.000
M3 S1000.0
G1 X43.000 Y10.000 F126.000
M5
G0 X40.000 Y20.000
M3 S1000.0
G1 X43.000 Y20.000 F126.000
G1 X43.000 Y30.000 F120.000
M5
G0 X40.000 Y30.000
M3 S1000.0
G1 X43.000 Y30.000 F126.000
M5
G0 X40.000 Y40.000
M3 S1000.0
G1 X43.000 Y40.000 F126.000
G1 X43.000 Y50.000 F120.000
M5
G0 X40.000 Y50.000
M3 S1000.0
G1 X43.000 Y50.000 F126.000
M5
G0 X58.000 Y0.000
M3 S1000.0
G1 X58.000 Y10.000 F120.000
M5
G0 X55.000 Y10.000
M3 S1000.0
G1 X58.000 Y10.000 F126.000
M5
G0 X55.000 Y20.000
M3 S1000.0
G1 X58.000 Y20.000 F126.000
G1 X58.000 Y30.000 F120.000
M5
G0 X55.000 Y30.000
M3 S1000.0
G1 X58.000 Y30.000 F126.000
M5
G0 X55.000 Y40.000
M3 S1000.0
G1 X58.000 Y40.000 F126.000
G1 X58.000 Y50.000 F120.000
M5
G0 X55.000 Y50.000
M3 S1000.0
G1 X58.000 Y50.000 F126.000
M5
G0 X52.000 Y6.100
M3 S1000.0
G1 X52.115 Y6.094 F120.000
G1 X52.229 Y6.076 F120.000
G1 X52.340 Y6.046 F120.000
G1 X52.447 Y6.005 F120.000
G1 X52.550 Y5.953 F120.000
G1 X52.647 Y5.890 F120.000
G1 X52.736 Y5.817 F120.000
G1 X52.817 Y5.736 F120.000
G1 X52.890 Y5.647 F120.000
G1 X52.953 Y5.550 F120.000
G1 X53.005 Y5.447 F120.000
G1 X53.046 Y5.340 F120.000
G1 X53.076 Y5.229 F120.000
G1 X53.094 Y5.115 F120.000
G1 X53.100 Y5.000 F120.000
G1 X53.094 Y4.885 F120.000
G1 X53.076 Y4.771 F120.000
G1 X53.046 Y4.660 F120.000
G1 X53.005 Y4.553 F120.000
G1 X52.953 Y4.450 F120.000
G1 X52.890 Y4.353 F120.000
G1 X52.817 Y4.264 F120.000
G1 X52.736 Y4.183 F120.000
G1 X52.647 Y4.110 F120.000
G1 X52.550 Y4.047 F120.000
G1 X52.447 Y3.995 F120.000
G1 X52.340 Y3.954 F120.000
G1 X52.229 Y3.924 F120.000
G1 X52.115 Y3.906 F120.000
G1 X52.000 Y3.900 F120.000
G1 X51.885 Y3.906 F120.000
G1 X51.771 Y3.924 F120.000
G1 X51.660 Y3.954 F120.000
G1 X51.553 Y3.995 F120.000
G1 X51.450 Y4.047 F120.000
G1 X51.353 Y4.110 F120.000
G1 X51.264 Y4.183 F120.000
G1 X51.183 Y4.264 F120.000
G1 X51.110 Y4.353 F120.000
G1 X51.047 Y4.450 F120.000
G1 X50.995 Y4.553 F120.000
G1 X50.954 Y4.660 F120.000
G1 X50.924 Y4.771 F120.000
G1 X50.906 Y4.885 F120.000
G1 X50.900 Y5.000 F120.000
G1 X50.906 Y5.115 F120.000
G1 X50.924 Y5.229 F120.000
G1 X50.954 Y5.340 F120.000
G1 X50.995 Y5.447 F120.000
G1 X51.047 Y5.550 F120.000
G1 X51.110 Y5.647 F120.000
G1 X51.183 Y5.736 F120.000
G1 X51.264 Y5.817 F120.000
G1 X51.353 Y5.890 F120.000
G1 X51.450 Y5.953 F120.000
G1 X51.553 Y6.005 F120.000
G1 X51.660 Y6.046 F120.000
G1 X51.771 Y6.076 F120.000
G1 X51.885 Y6.094 F120.000
G1 X52.000 Y6.100 F120.000
M5
G0 X52.000 Y56.100
M3 S1000.0
G1 X52.115 Y56.094 F120.000
G1 X52.229 Y56.076 F120.000
G1 X52.340 Y56.046 F120.000
G1 X52.447 Y56.005 F120.000
G1 X52.550 Y55.953 F120.000
G1 X52.647 Y55.890 F120.000
G1 X52.736 Y55.817 F120.000
G1 X52.817 Y55.736 F120.000
G1 X52.890 Y55.647 F120.000
G1 X52.953 Y55.550 F120.000
G1 X53.005 Y55.447 F120.000
G1 X53.046 Y55.340 F120.000
G1 X53.076 Y55.229 F120.000
G1 X53.094 Y55.115 F120.000
G1 X53.100 Y55.000 F120.000
G1 X53.094 Y54.885 F120.000
G1 X53.076 Y54.771 F120.000
G1 X53.046 Y54.660 F120.000
G1 X53.005 Y54.553 F120.000
G1 X52.953 Y54.450 F120.000
G1 X52.890 Y54.353 F120.000
G1 X52.817 Y54.264 F120.000
G1 X52.736 Y54.183 F120.000
G1 X52.647 Y54.110 F120.000
G1 X52.550 Y54.047 F120.000
G1 X52.447 Y53.995 F120.000
G1 X52.340 Y53.954 F120.000
G1 X52.229 Y53.924 F120.000
G1 X52.115 Y53.906 F120.000
G1 X52.000 Y53.900 F120.000
G1 X51.885 Y53.906 F120.000
G1 X51.771 Y53.924 F120.000
G1 X51.660 Y53.954 F120.000
G1 X51.553 Y53.995 F120.000
G1 X51.450 Y54.047 F120.000
G1 X51.353 Y54.110 F120.000
G1 X51.264 Y54.183 F120.000
G1 X51.183 Y54.264 F120.000
G1 X51.110 Y54.353 F120.000
G1 X51.047 Y54.450 F120.000
G1 X50.995 Y54.553 F120.000
G1 X50.954 Y54.660 F120.000
G1 X50.924 Y54.771 F120.000
G1 X50.906 Y54.885 F120.000
G1 X50.900 Y55.000 F120.000
G1 X50.906 Y55.115 F120.000
G1 X50.924 Y55.229 F120.000
G1 X50.954 Y55.340 F120.000
G1 X50.995 Y55.447 F120.000
G1 X51.047 Y55.550 F120.000
G1 X51.110 Y55.647 F120.000
G1 X51.183 Y55.736 F120.000
G1 X51.264 Y55.817 F120.000
G1 X51.353 Y55.890 F120.000
G1 X51.450 Y55.953 F120.000
G1 X51.553 Y56.005 F120.000
G1 X51.660 Y56.046 F120.000
G1 X51.771 Y56.076 F120.000
G1 X51.885 Y56.094 F120.000
G1 X52.000 Y56.100 F120.000
M5
G0 X67.000 Y6.100
M3 S1000.0
G1 X67.115 Y6.094 F120.000
G1 X67.229 Y6.076 F120.000
G1 X67.340 Y6.046 F120.000
G1 X67.447 Y6.005 F120.000
G1 X67.550 Y5.953 F120.000
G1 X67.647 Y5.890 F120.000
G1 X67.736 Y5.817 F120.000
G1 X67.817 Y5.736 F120.000
G1 X67.890 Y5.647 F120.000
G1 X67.953 Y5.550 F120.000
G1 X68.005 Y5.447 F120.000
G1 X68.046 Y5.340 F120.000
G1 X68.076 Y5.229 F120.000
G1 X68.094 Y5.115 F120.000
G1 X68.100 Y5.000 F120.000
G1 X68.094 Y4.885 F120.000
G1 X68.076 Y4.771 F120.000
G1 X68.046 Y4.660 F120.000
G1 X68.005 Y4.553 F120.000
G1 X67.953 Y4.450 F120.000
G1 X67.890 Y4.353 F120.000
G1 X67.817 Y4.264 F120.000
G1 X67.736 Y4.183 F120.000
G1 X67.647 Y4.110 F120.000
G1 X67.550 Y4.047 F120.000
G1 X67.447 Y3.995 F120.000
G1 X67.340 Y3.954 F120.000
G1 X67.229 Y3.924 F120.000
G1 X67.115 Y3.906 F120.000
G1 X67.000 Y3.900 F120.000
G1 X66.885 Y3.906 F120.000
G1 X66.771 Y3.924 F120.000
G1 X66.660 Y3.954 F120.000
G1 X66.553 Y3.995 F120.000
G1 X66.450 Y4.047 F120.000
G1 X66.353 Y4.110 F120.000
G1 X66.264 Y4.183 F120.000
G1 X66.183 Y4.264 F120.000
G1 X66.110 Y4.353 F120.000
G1 X66.047 Y4.450 F120.000
G1 X65.995 Y4.553 F120.000
G1 X65.954 Y4.660 F120.000
G1 X65.924 Y4.771 F120.000
G1 X65.906 Y4.885 F120.000
G1 X65.900 Y5.000 F120.000
G1 X65.906 Y5.115 F120.000
G1 X65.924 Y5.229 F120.000
G1 X65.954 Y5.340 F120.000
G1 X65.995 Y5.447 F120.000
G1 X66.047 Y5.550 F120.000
G1 X66.110 Y5.647 F120.000
G1 X66.183 Y5.736 F120.000
G1 X66.264 Y5.817 F120.000
G1 X66.353 Y5.890 F120.000
G1 X66.450 Y5.953 F120.000
G1 X66.553 Y6.005 F120.000
G1 X66.660 Y6.046 F120.000
G1 X66.771 Y6.076 F120.000
G1 X66.885 Y6.094 F120.000
G1 X67.000 Y6.100 F120.000
M5
G0 X67.000 Y56.100
M3 S1000.0
G1 X67.115 Y56.094 F120.000
G1 X67.229 Y56.076 F120.000
G1 X67.340 Y56.046 F120.000
G1 X67.447 Y56.005 F120.000
G1 X67.550 Y55.953 F120.000
G1 X67.647 Y55.890 F120.000
G1 X67.736 Y55.817 F120.000
G1 X67.817 Y55.736 F120.000
G1 X67.890 Y55.647 F120.000
G1 X67.953 Y55.550 F120.000
G1 X68.005 Y55.447 F120.000
G1 X68.046 Y55.340 F120.000
G1 X68.076 Y55.229 F120.000
G1 X68.094 Y55.115 F120.000
G1 X68.100 Y55.000 F120.000
G1 X68.094 Y54.885 F120.000
G1 X68.076 Y54.771 F120.000
G1 X68.046 Y54.660 F120.000
G1 X68.005 Y54.553 F120.000
G1 X67.953 Y54.450 F120.000
G1 X67.890 Y54.353 F120.000
G1 X67.817 Y54.264 F120.000
G1 X67.736 Y54.183 F120.000
G1 X67.647 Y54.110 F120.000
G1 X67.550 Y54.047 F120.000
G1 X67.447 Y53.995 F120.000
G1 X67.340 Y53.954 F120.000
G1 X67.229 Y53.924 F120.000
G1 X67.115 Y53.906 F120.000
G1 X67.000 Y53.900 F120.000
G1 X66.885 Y53.906 F120.000
G1 X66.771 Y53.924 F120.000
G1 X66.660 Y53.954 F120.000
G1 X66.553 Y53.995 F120.000
G1 X66.450 Y54.047 F120.000
G1 X66.353 Y54.110 F120.000
G1 X66.264 Y54.183 F120.000
G1 X66.183 Y54.264 F120.000
G1 X66.110 Y54.353 F120.000
G1 X66.047 Y54.450 F120.000
G1 X65.995 Y54.553 F120.000
G1 X65.954 Y54.660 F120.000
G1 X65.924 Y54.771 F120.000
G1 X65.906 Y54.885 F120.000
G1 X65.900 Y55.000 F120.000
G1 X65.906 Y55.115 F120.000
G1 X65.924 Y55.229 F120.000
G1 X65.954 Y55.340 F120.000
G1 X65.995 Y55.447 F120.000
G1 X66.047 Y55.550 F120.000
G1 X66.110 Y55.647 F120.000
G1 X66.183 Y55.736 F120.000
G1 X66.264 Y55.817 F120.000
G1 X66.353 Y55.890 F120.000
G1 X66.450 Y55.953 F120.000
G1 X66.553 Y56.005 F120.000
G1 X66.660 Y56.046 F120.000
G1 X66.771 Y56.076 F120.000
G1 X66.885 Y56.094 F120.000
G1 X67.000 Y56.100 F120.000
M5
G0 X31.000 Y72.000
M3 S1000.0
G1 X31.105 Y71.995 F120.000
G1 X31.208 Y71.978 F120.000
G1 X31.309 Y71.951 F120.000
G1 X31.407 Y71.914 F120.000
G1 X31.500 Y71.866 F120.000
G1 X31.588 Y71.809 F120.000
G1 X31.669 Y71.743 F120.000
G1 X31.743 Y71.669 F120.000
G1 X31.809 Y71.588 F120.000
G1 X31.866 Y71.500 F120.000
G1 X31.914 Y71.407 F120.000
G1 X31.951 Y71.309 F120.000
G1 X31.978 Y71.208 F120.000
G1 X31.995 Y71.105 F120.000
G1 X32.000 Y71.000 F120.000
G1 X31.995 Y70.895 F120.000
G1 X31.978 Y70.792 F120.000
G1 X31.951 Y70.691 F120.000
G1 X31.914 Y70.593 F120.000
G1 X31.866 Y70.500 F120.000
G1 X31.809 Y70.412 F120.000
G1 X31.743 Y70.331 F120.000
G1 X31.669 Y70.257 F120.000
G1 X31.588 Y70.191 F120.000
G1 X31.500 Y70.134 F120.000
G1 X31.407 Y70.086 F120.000
G1 X31.309 Y70.049 F120.000
G1 X31.208 Y70.022 F120.000
G1 X31.105 Y70.005 F120.000
G1 X31.000 Y70.000 F120.000
G1 X30.895 Y70.005 F120.000
G1 X30.792 Y70.022 F120.000
G1 X30.691 Y70.049 F120.000
G1 X30.593 Y70.086 F120.000
G1 X30.500 Y70.134 F120.000
G1 X30.412 Y70.191 F120.000
G1 X30.331 Y70.257 F120.000
G1 X30.257 Y70.331 F120.000
G1 X30.191 Y70.412 F120.000
G1 X30.134 Y70.500 F120.000
G1 X30.086 Y70.593 F120.000
G1 X30.049 Y70.691 F120.000
G1 X30.022 Y70.792 F120.000
G1 X30.005 Y70.895 F120.000
G1 X30.000 Y71.000 F120.000
G1 X30.005 Y71.105 F120.000
G1 X30.022 Y71.208 F120.000
G1 X30.049 Y71.309 F120.000
G1 X30.086 Y71.407 F120.000
G1 X30.134 Y71.500 F120.000
G1 X30.191 Y71.588 F120.000
G1 X30.257 Y71.669 F120.000
G1 X30.331 Y71.743 F120.000
G1 X30.412 Y71.809 F120.000
G1 X30.500 Y71.866 F120.000
G1 X30.593 Y71.914 F120.000
G1 X30.691 Y71.951 F120.000
G1 X30.792 Y71.978 F120.000
G1 X30.895 Y71.995 F120.000
G1 X31.000 Y72.000 F120.000
M5
G0 X52.000 Y72.000
M3 S1000.0
G1 X52.105 Y71.995 F120.000
G1 X52.208 Y71.978 F120.000
G1 X52.309 Y71.951 F120.000
G1 X52.407 Y71.914 F120.000
G1 X52.500 Y71.866 F120.000
G1 X52.588 Y71.809 F120.000
G1 X52.669 Y71.743 F120.000
G1 X52.743 Y71.669 F120.000
G1 X52.809 Y71.588 F120.000
G1 X52.866 Y71.500 F120.000
G1 X52.914 Y71.407 F120.000
G1 X52.951 Y71.309 F120.000
G1 X52.978 Y71.208 F120.000
G1 X52.995 Y71.105 F120.000
G1 X53.000 Y71.000 F120.000
G1 X52.995 Y70.895 F120.000
G1 X52.978 Y70.792 F120.000
G1 X52.951 Y70.691 F120.000
G1 X52.914 Y70.593 F120.000
G1 X52.866 Y70.500 F120.000
G1 X52.809 Y70.412 F120.000
G1 X52.743 Y70.331 F120.000
G1 X52.669 Y70.257 F120.000
G1 X52.588 Y70.191 F120.000
G1 X52.500 Y70.134 F120.000
G1 X52.407 Y70.086 F120.000
G1 X52.309 Y70.049 F120.000
G1 X52.208 Y70.022 F120.000
G1 X52.105 Y70.005 F120.000
G1 X52.000 Y70.000 F120.000
G1 X51.895 Y70.005 F120.000
G1 X51.792 Y70.022 F120.000
G1 X51.691 Y70.049 F120.000
G1 X51.593 Y70.086 F120.000
G1 X51.500 Y70.134 F120.000
G1 X51.412 Y70.191 F120.000
G1 X51.331 Y70.257 F120.000
G1 X51.257 Y70.331 F120.000
G1 X51.191 Y70.412 F120.000
G1 X51.134 Y70.500 F120.000
G1 X51.086 Y70.593 F120.000
G1 X51.049 Y70.691 F120.000
G1 X51.022 Y70.792 F120.000
G1 X51.005 Y70.895 F120.000
G1 X51.000 Y71.000 F120.000
G1 X51.005 Y71.105 F120.000
G1 X51.022 Y71.208 F120.000
G1 X51.049 Y71.309 F120.000
G1 X51.086 Y71.407 F120.000
G1 X51.134 Y71.500 F120.000
G1 X51.191 Y71.588 F120.000
G1 X51.257 Y71.669 F120.000
G1 X51.331 Y71.743 F120.000
G1 X51.412 Y71.809 F120.000
G1 X51.500 Y71.866 F120.000
G1 X51.593 Y71.914 F120.000
G1 X51.691 Y71.951 F120.000
G1 X51.792 Y71.978 F120.000
G1 X51.895 Y71.995 F120.000
G1 X52.000 Y72.000 F120.000
M5
G0 X73.000 Y72.000
M3 S1000.0
G1 X73.105 Y71.995 F120.000
G1 X73.208 Y71.978 F120.000
G1 X73.309 Y71.951 F120.000
G1 X73.407 Y71.914 F120.000
G1 X73.500 Y71.866 F120.000
G1 X73.588 Y71.809 F120.000
G1 X73.669 Y71.743 F120.000
G1 X73.743 Y71.669 F120.000
G1 X73.809 Y71.588 F120.000
G1 X73.866 Y71.500 F120.000
G1 X73.914 Y71.407 F120.000
G1 X73.951 Y71.309 F120.000
G1 X73.978 Y71.208 F120.000
G1 X73.995 Y71.105 F120.000
G1 X74.000 Y71.000 F120.000
G1 X73.995 Y70.895 F120.000
G1 X73.978 Y70.792 F120.000
G1 X73.951 Y70.691 F120.000
G1 X73.914 Y70.593 F120.000
G1 X73.866 Y70.500 F120.000
G1 X73.809 Y70.412 F120.000
G1 X73.743 Y70.331 F120.000
G1 X73.669 Y70.257 F120.000
G1 X73.588 Y70.191 F120.000
G1 X73.500 Y70.134 F120.000
G1 X73.407 Y70.086 F120.000
G1 X73.309 Y70.049 F120.000
G1 X73.208 Y70.022 F120.000
G1 X73.105 Y70.005 F120.000
G1 X73.000 Y70.000 F120.000
G1 X72.895 Y70.005 F120.000
G1 X72.792 Y70.022 F120.000
G1 X72.691 Y70.049 F120.000
G1 X72.593 Y70.086 F120.000
G1 X72.500 Y70.134 F120.000
G1 X72.412 Y70.191 F120.000
G1 X72.331 Y70.257 F120.000
G1 X72.257 Y70.331 F120.000
G1 X72.191 Y70.412 F120.000
G1 X72.134 Y70.500 F120.000
G1 X72.086 Y70.593 F120.000
G1 X72.049 Y70.691 F120.000
G1 X72.022 Y70.792 F120.000
G1 X72.005 Y70.895 F120.000
G1 X72.000 Y71.000 F120.000
G1 X72.005 Y71.105 F120.000
G1 X72.022 Y71.208 F120.000
G1 X72.049 Y71.309 F120.000
G1 X72.086 Y71.407 F120.000
G1 X72.134 Y71.500 F120.000
G1 X72.191 Y71.588 F120.000
G1 X72.257 Y71.669 F120.000
G1 X72.331 Y71.743 F120.000
G1 X72.412 Y71.809 F120.000
G1 X72.500 Y71.866 F120.000
G1 X72.593 Y71.914 F120.000
G1 X72.691 Y71.951 F120.000
G1 X72.792 Y71.978 F120.000
G1 X72.895 Y71.995 F120.000
G1 X73.000 Y72.000 F120.000
M5
G0 X94.000 Y72.000
M3 S1000.0
G1 X94.105 Y71.995 F120.000
G1 X94.208 Y71.978 F120.000
G1 X94.309 Y71.951 F120.000
G1 X94.407 Y71.914 F120.000
G1 X94.500 Y71.866 F120.000
G1 X94.588 Y71.809 F120.000
G1 X94.669 Y71.743 F120.000
G1 X94.743 Y71.669 F120.000
G1 X94.809 Y71.588 F120.000
G1 X94.866 Y71.500 F120.000
G1 X94.914 Y71.407 F120.000
G1 X94.951 Y71.309 F120.000
G1 X94.978 Y71.208 F120.000
G1 X94.995 Y71.105 F120.000
G1 X95.000 Y71.000 F120.000
G1 X94.995 Y70.895 F120.000
G1 X94.978 Y70.792 F120.000
G1 X94.951 Y70.691 F120.000
G1 X94.914 Y70.593 F120.000
G1 X94.866 Y70.500 F120.000
G1 X94.809 Y70.412 F120.000
G1 X94.743 Y70.331 F120.000
G1 X94.669 Y70.257 F120.000
G1 X94.588 Y70.191 F120.000
G1 X94.500 Y70.134 F120.000
G1 X94.407 Y70.086 F120.000
G1 X94.309 Y70.049 F120.000
G1 X94.208 Y70.022 F120.000
G1 X94.105 Y70.005 F120.000
G1 X94.000 Y70.000 F120.000
G1 X93.895 Y70.005 F120.000
G1 X93.792 Y70.022 F120.000
G1 X93.691 Y70.049 F120.000
G1 X93.593 Y70.086 F120.000
G1 X93.500 Y70.134 F120.000
G1 X93.412 Y70.191 F120.000
G1 X93.331 Y70.257 F120.000
G1 X93.257 Y70.331 F120.000
G1 X93.191 Y70.412 F120.000
G1 X93.134 Y70.500 F120.000
G1 X93.086 Y70.593 F120.000
G1 X93.049 Y70.691 F120.000
G1 X93.022 Y70.792 F120.000
G1 X93.005 Y70.895 F120.000
G1 X93.000 Y71.000 F120.000
G1 X93.005 Y71.105 F120.000
G1 X93.022 Y71.208 F120.000
G1 X93.049 Y71.309 F120.000
G1 X93.086 Y71.407 F120.000
G1 X93.134 Y71.500 F120.000
G1 X93.191 Y71.588 F120.000
G1 X93.257 Y71.669 F120.000
G1 X93.331 Y71.743 F120.000
G1 X93.412 Y71.809 F120.000
G1 X93.500 Y71.866 F120.000
G1 X93.593 Y71.914 F120.000
G1 X93.691 Y71.951 F120.000
G1 X93.792 Y71.978 F120.000
G1 X93.895 Y71.995 F120.000
G1 X94.000 Y72.000 F120.000
M5
G0 X94.000 Y81.000
M3 S1000.0
G1 X92.955 Y80.945 F120.000
G1 X91.921 Y80.781 F120.000
G1 X90.910 Y80.511 F120.000
G1 X89.933 Y80.135 F120.000
G1 X89.000 Y79.660 F120.000
G1 X88.122 Y79.090 F120.000
G1 X87.309 Y78.431 F120.000
G1 X86.569 Y77.691 F120.000
G1 X85.910 Y76.878 F120.000
G1 X85.340 Y76.000 F120.000
G1 X84.865 Y75.067 F120.000
G1 X84.489 Y74.090 F120.000
G1 X84.485 Y74.075 F120.000
G1 X84.343 Y73.596 F350.000
G1 X84.219 Y73.079 F120.000
G1 X84.055 Y72.045 F120.000
G1 X84.000 Y71.000 F120.000
G1 X84.055 Y69.955 F120.000
G1 X84.219 Y68.921 F120.000
G1 X84.489 Y67.910 F120.000
G1 X84.865 Y66.933 F120.000
G1 X85.340 Y66.000 F120.000
G1 X85.910 Y65.122 F120.000
G1 X86.569 Y64.309 F120.000
G1 X87.309 Y63.569 F120.000
G1 X88.122 Y62.910 F120.000
G1 X89.000 Y62.340 F120.000
G1 X89.933 Y61.865 F120.000
G1 X90.910 Y61.489 F120.000
G1 X91.921 Y61.219 F120.000
G1 X92.955 Y61.055 F120.000
G1 X94.000 Y61.000 F120.000
G1 X95.045 Y61.055 F120.000
G1 X95.163 Y61.068 F120.000
G1 X95.658 Y61.138 F350.000
G1 X96.079 Y61.219 F120.000
G1 X97.090 Y61.489 F120.000
G1 X98.067 Y61.865 F120.000
G1 X99.000 Y62.340 F120.000
G1 X99.878 Y62.910 F120.000
G1 X100.691 Y63.569 F120.000
G1 X101.431 Y64.309 F120.000
G1 X102.090 Y65.122 F120.000
G1 X102.660 Y66.000 F120.000
G1 X103.135 Y66.933 F120.000
G1 X103.511 Y67.910 F120.000
G1 X103.781 Y68.921 F120.000
G1 X103.945 Y69.955 F120.000
G1 X104.000 Y71.000 F120.000
G1 X103.945 Y72.045 F120.000
G1 X103.781 Y73.079 F120.000
G1 X103.511 Y74.090 F120.000
G1 X103.135 Y75.067 F120.000
G1 X102.660 Y76.000 F120.000
G1 X102.547 Y76.191 F120.000
G1 X102.277 Y76.612 F350.000
G1 X102.090 Y76.878 F120.000
G1 X101.431 Y77.691 F120.000
G1 X100.691 Y78.431 F120.000
G1 X99.878 Y79.090 F120.000
G1 X99.000 Y79.660 F120.000
G1 X98.067 Y80.135 F120.000
G1 X97.090 Y80.511 F120.000
G1 X96.079 Y80.781 F120.000
G1 X95.045 Y80.945 F120.000
G1 X94.000 Y81.000 F120.000
M5
G0 X73.000 Y81.000
M3 S1000.0
G1 X74.045 Y80.945 F120.000
G1 X75.079 Y80.781 F120.000
G1 X76.090 Y80.511 F120.000
G1 X77.067 Y80.135 F120.000
G1 X78.000 Y79.660 F120.000
G1 X78.878 Y79.090 F120.000
G1 X79.691 Y78.431 F120.000
G1 X80.431 Y77.691 F120.000
G1 X81.090 Y76.878 F120.000
G1 X81.277 Y76.612 F120.000
G1 X81.547 Y76.191 F350.000
G1 X81.660 Y76.000 F120.000
G1 X82.135 Y75.067 F120.000
G1 X82.511 Y74.090 F120.000
G1 X82.781 Y73.079 F120.000
G1 X82.945 Y72.045 F120.000
G1 X83.000 Y71.000 F120.000
G1 X82.945 Y69.955 F120.000
G1 X82.781 Y68.921 F120.000
G1 X82.511 Y67.910 F120.000
G1 X82.135 Y66.933 F120.000
G1 X81.660 Y66.000 F120.000
G1 X81.090 Y65.122 F120.000
G1 X80.431 Y64.309 F120.000
G1 X79.691 Y63.569 F120.000
G1 X78.878 Y62.910 F120.000
G1 X78.000 Y62.340 F120.000
G1 X77.067 Y61.865 F120.000
G1 X76.090 Y61.489 F120.000
G1 X75.079 Y61.219 F120.000
G1 X74.658 Y61.138 F120.000
G1 X74.163 Y61.068 F350.000
G1 X74.045 Y61.055 F120.000
G1 X73.000 Y61.000 F120.000
G1 X71.955 Y61.055 F120.000
G1 X70.921 Y61.219 F120.000
G1 X69.910 Y61.489 F120.000
G1 X68.933 Y61.865 F120.000
G1 X68.000 Y62.340 F120.000
G1 X67.122 Y62.910 F120.000
G1 X66.309 Y63.569 F120.000
G1 X65.569 Y64.309 F120.000
G1 X64.910 Y65.122 F120.000
G1 X64.340 Y66.000 F120.000
G1 X63.865 Y66.933 F120.000
G1 X63.489 Y67.910 F120.000
G1 X63.219 Y68.921 F120.000
G1 X63.055 Y69.955 F120.000
G1 X63.000 Y71.000 F120.000
G1 X63.055 Y72.045 F120.000
G1 X63.219 Y73.079 F120.000
G1 X63.343 Y73.596 F120.000
G1 X63.485 Y74.075 F350.000
G1 X63.489 Y74.090 F120.000
G1 X63.865 Y75.067 F120.000
G1 X64.340 Y76.000 F120.000
G1 X64.910 Y76.878 F120.000
G1 X65.569 Y77.691 F120.000
G1 X66.309 Y78.431 F120.000
G1 X67.122 Y79.090 F120.000
G1 X68.000 Y79.660 F120.000
G1 X68.933 Y80.135 F120.000
G1 X69.910 Y80.511 F120.000
G1 X70.921 Y80.781 F120.000
G1 X71.955 Y80.945 F120.000
G1 X73.000 Y81.000 F120.000
M5
G0 X52.000 Y81.000
M3 S1000.0
G1 X53.045 Y80.945 F120.000
G1 X54.079 Y80.781 F120.000
G1 X55.090 Y80.511 F120.000
G1 X56.067 Y80.135 F120.000
G1 X57.000 Y79.660 F120.000
G1 X57.878 Y79.090 F120.000
G1 X58.691 Y78.431 F120.000
G1 X59.431 Y77.691 F120.000
G1 X60.090 Y76.878 F120.000
G1 X60.277 Y76.612 F120.000
G1 X60.547 Y76.191 F350.000
G1 X60.660 Y76.000 F120.000
G1 X61.135 Y75.067 F120.000
G1 X61.511 Y74.090 F120.000
G1 X61.781 Y73.079 F120.000
G1 X61.945 Y72.045 F120.000
G1 X62.000 Y71.000 F120.000
G1 X61.945 Y69.955 F120.000
G1 X61.781 Y68.921 F120.000
G1 X61.511 Y67.910 F120.000
G1 X61.135 Y66.933 F120.000
G1 X60.660 Y66.000 F120.000
G1 X60.090 Y65.122 F120.000
G1 X59.431 Y64.309 F120.000
G1 X58.691 Y63.569 F120.000
G1 X57.878 Y62.910 F120.000
G1 X57.000 Y62.340 F120.000
G1 X56.067 Y61.865 F120.000
G1 X55.090 Y61.489 F120.000
G1 X54.079 Y61.219 F120.000
G1 X53.658 Y61.138 F120.000
G1 X53.163 Y61.068 F350.000
G1 X53.045 Y61.055 F120.000
G1 X52.000 Y61.000 F120.000
G1 X50.955 Y61.055 F120.000
G1 X49.921 Y61.219 F120.000
G1 X48.910 Y61.489 F120.000
G1 X47.933 Y61.865 F120.000
G1 X47.000 Y62.340 F120.000
G1 X46.122 Y62.910 F120.000
G1 X45.309 Y63.569 F120.000
G1 X44.569 Y64.309 F120.000
G1 X43.910 Y65.122 F120.000
G1 X43.340 Y66.000 F120.000
G1 X42.865 Y66.933 F120.000
G1 X42.489 Y67.910 F120.000
G1 X42.219 Y68.921 F120.000
G1 X42.055 Y69.955 F120.000
G1 X42.000 Y71.000 F120.000
G1 X42.055 Y72.045 F120.000
G1 X42.219 Y73.079 F120.000
G1 X42.343 Y73.596 F120.000
G1 X42.485 Y74.075 F350.000
G1 X42.489 Y74.090 F120.000
G1 X42.865 Y75.067 F120.000
G1 X43.340 Y76.000 F120.000
G1 X43.910 Y76.878 F120.000
G1 X44.569 Y77.691 F120.000
G1 X45.309 Y78.431 F120.000
G1 X46.122 Y79.090 F120.000
G1 X47.000 Y79.660 F120.000
G1 X47.933 Y80.135 F120.000
G1 X48.910 Y80.511 F120.000
G1 X49.921 Y80.781 F120.000
G1 X50.955 Y80.945 F120.000
G1 X52.000 Y81.000 F120.000
M5
G0 X31.000 Y81.000
M3 S1000.0
G1 X32.045 Y80.945 F120.000
G1 X33.079 Y80.781 F120.000
G1 X34.090 Y80.511 F120.000
G1 X35.067 Y80.135 F120.000
G1 X36.000 Y79.660 F120.000
G1 X36.878 Y79.090 F120.000
G1 X37.691 Y78.431 F120.000
G1 X38.431 Y77.691 F120.000
G1 X39.090 Y76.878 F120.000
G1 X39.277 Y76.612 F120.000
G1 X39.547 Y76.191 F350.000
G1 X39.660 Y76.000 F120.000
G1 X40.135 Y75.067 F120.000
G1 X40.511 Y74.090 F120.000
G1 X40.781 Y73.079 F120.000
G1 X40.945 Y72.045 F120.000
G1 X41.000 Y71.000 F120.000
G1 X40.945 Y69.955 F120.000
G1 X40.781 Y68.921 F120.000
G1 X40.511 Y67.910 F120.000
G1 X40.135 Y66.933 F120.000
G1 X39.660 Y66.000 F120.000
G1 X39.090 Y65.122 F120.000
G1 X38.431 Y64.309 F120.000
G1 X37.691 Y63.569 F120.000
G1 X36.878 Y62.910 F120.000
G1 X36.000 Y62.340 F120.000
G1 X35.067 Y61.865 F120.000
G1 X34.090 Y61.489 F120.000
G1 X33.079 Y61.219 F120.000
G1 X32.658 Y61.138 F120.000
G1 X32.163 Y61.068 F350.000
G1 X32.045 Y61.055 F120.000
G1 X31.000 Y61.000 F120.000
G1 X29.955 Y61.055 F120.000
G1 X28.921 Y61.219 F120.000
G1 X27.910 Y61.489 F120.000
G1 X26.933 Y61.865 F120.000
G1 X26.000 Y62.340 F120.000
G1 X25.122 Y62.910 F120.000
G1 X24.309 Y63.569 F120.000
G1 X23.569 Y64.309 F120.000
G1 X22.910 Y65.122 F120.000
G1 X22.340 Y66.000 F120.000
G1 X21.865 Y66.933 F120.000
G1 X21.489 Y67.910 F120.000
G1 X21.219 Y68.921 F120.000
G1 X21.055 Y69.955 F120.000
G1 X21.000 Y71.000 F120.000
G1 X21.055 Y72.045 F120.000
G1 X21.219 Y73.079 F120.000
G1 X21.343 Y73.596 F120.000
G1 X21.485 Y74.075 F350.000
G1 X21.489 Y74.090 F120.000
G1 X21.865 Y75.067 F120.000
G1 X22.340 Y76.000 F120.000
G1 X22.910 Y76.878 F120.000
G1 X23.569 Y77.691 F120.000
G1 X24.309 Y78.431 F120.000
G1 X25.122 Y79.090 F120.000
G1 X26.000 Y79.660 F120.000
G1 X26.933 Y80.135 F120.000
G1 X27.910 Y80.511 F120.000
G1 X28.921 Y80.781 F120.000
G1 X29.955 Y80.945 F120.000
G1 X31.000 Y81.000 F120.000
M5
G0 X20.000 Y80.000
M3 S1000.0
G1 X0.000 Y80.000 F210.000
G1 X0.000 Y70.250 F200.000
G1 X0.000 Y69.750 F350.000
G1 X0.000 Y50.250 F200.000
G1 X0.000 Y49.750 F350.000
G1 X0.000 Y30.250 F200.000
G1 X0.000 Y29.750 F350.000
G1 X0.000 Y10.250 F200.000
G1 X0.000 Y9.750 F350.000
G1 X0.000 Y0.000 F200.000
G1 X9.750 Y0.000 F210.000
G1 X10.250 Y0.000 F350.000
G1 X29.750 Y0.000 F210.000
G1 X30.250 Y0.000 F350.000
G1 X49.750 Y0.000 F210.000
G1 X50.250 Y0.000 F350.000
G1 X69.750 Y0.000 F210.000
G1 X70.250 Y0.000 F350.000
G1 X90.000 Y0.000 F210.000
G1 X90.000 Y9.750 F200.000
G1 X90.000 Y10.250 F350.000
G1 X90.000 Y29.750 F200.000
G1 X90.000 Y30.250 F350.000
G1 X90.000 Y49.750 F200.000
G1 X90.000 Y50.250 F350.000
G1 X90.000 Y60.000 F200.000
G1 X80.250 Y60.000 F210.000
G1 X79.750 Y60.000 F350.000
G1 X60.250 Y60.000 F210.000
G1 X59.750 Y60.000 F350.000
G1 X40.250 Y60.000 F210.000
G1 X39.750 Y60.000 F350.000
G1 X20.000 Y60.000 F210.000
M5
G0 X30.000 Y60.000
M3 S1000.0
G1 X30.000 Y50.250 F200.000
G1 X30.000 Y49.750 F350.000
G1 X30.000 Y30.250 F200.000
G1 X30.000 Y29.750 F350.000
G1 X30.000 Y10.250 F200.000
G1 X30.000 Y9.750 F350.000
G1 X30.000 Y0.000 F200.000
M5
G0 X20.000 Y0.000
M3 S1000.0
G1 X20.000 Y9.750 F200.000
G1 X20.000 Y10.250 F350.000
G1 X20.000 Y29.750 F200.000
G1 X20.000 Y30.250 F350.000
G1 X20.000 Y49.750 F200.000
G1 X20.000 Y50.250 F350.000
G1 X20.000 Y69.750 F200.000
G1 X20.000 Y70.250 F350.000
G1 X20.000 Y80.000 F200.000
M5
G0 X10.000 Y80.000
M3 S1000.0
G1 X10.000 Y70.250 F200.000
G1 X10.000 Y69.750 F350.000
G1 X10.000 Y50.250 F200.000
G1 X10.000 Y49.750 F350.000
G1 X10.000 Y30.250 F200.000
G1 X10.000 Y29.750 F350.000
G1 X10.000 Y10.250 F200.000
G1 X10.000 Y9.750 F350.000
G1 X10.000 Y0.000 F200.000
M5
G0 X40.000 Y0.000
M3 S1000.0
G1 X40.000 Y9.750 F200.000
G1 X40.000 Y10.250 F350.000
G1 X40.000 Y29.750 F200.000
G1 X40.000 Y30.250 F350.000
G1 X40.000 Y49.750 F200.000
G1 X40.000 Y50.250 F350.000
G1 X40.000 Y60.000 F200.000
M5
G0 X55.000 Y60.000
M3 S1000.0
G1 X55.000 Y50.250 F200.000
G1 X55.000 Y49.750 F350.000
G1 X55.000 Y30.250 F200.000
G1 X55.000 Y29.750 F350.000
G1 X55.000 Y10.250 F200.000
G1 X55.000 Y9.750 F350.000
G1 X55.000 Y0.000 F200.000
M5
G0 X70.000 Y0.000
M3 S1000.0
G1 X70.000 Y9.750 F200.000
G1 X70.000 Y10.250 F350.000
G1 X70.000 Y29.750 F200.000
G1 X70.000 Y30.250 F350.000
G1 X70.000 Y49.750 F200.000
G1 X70.000 Y50.250 F350.000
G1 X70.000 Y60.000 F200.000
M5
G0 X70.000 Y50.000
M3 S1000.0
G1 X80.000 Y50.000 F126.000
G1 X80.000 Y40.000 F120.000
G1 X90.000 Y40.000 F126.000
M5
G0 X90.000 Y30.000
M3 S1000.0
G1 X70.000 Y30.000 F210.000
M5
G0 X70.000 Y20.000
M3 S1000.0
G1 X80.000 Y20.000 F126.000
G1 X80.000 Y10.000 F120.000
G1 X90.000 Y10.000 F126.000
M5